{
  "type": "FeatureCollection",
  "features": [
    {
      "type": "Feature",
      "properties": {
        "norad_id": 34141,
        "name": "COSMOS 2251 DEB",
        "group": "cosmos-2251-debris",
        "lat": 54.17918990747112,
        "lon": -176.80669271698326,
        "alt_km": 689.5776546853722,
        "timestamp": "2025-12-13T22:39:30.105082+00:00",
        "meta_object_name": "COSMOS 2251 DEB",
        "meta_object_id": "1993-036LN",
        "meta_epoch": "2025-12-13T04:07:58.677888",
        "meta_mean_motion": 14.49250964,
        "meta_eccentricity": 0.00471322,
        "meta_inclination": 74.0114,
        "meta_ra_of_asc_node": 28.0484,
        "meta_arg_of_pericenter": 114.1939,
        "meta_mean_anomaly": 302.5698,
        "meta_ephemeris_type": 0,
        "meta_classification_type": "U",
        "meta_norad_cat_id": 34141,
        "meta_element_set_no": 999,
        "meta_rev_at_epoch": 87700,
        "meta_bstar": 0.0020851644,
        "meta_mean_motion_dot": 8.044e-05,
        "meta_mean_motion_ddot": 0,
        "tle_line1": "1 34141U 93036LN  25347.17220692  .00008044  00000+0  20852-2 0  9998",
        "tle_line2": "2 34141  74.0114  28.0484 0047132 114.1939 302.5698 14.49250964877002"
      },
      "geometry": {
        "type": "Point",
        "coordinates": [
          -176.80669271698326,
          54.17918990747112
        ]
      }
    },
    {
      "type": "Feature",
      "properties": {
        "norad_id": 34270,
        "name": "COSMOS 2251 DEB",
        "group": "cosmos-2251-debris",
        "lat": 30.34096782420384,
        "lon": 114.64563655871363,
        "alt_km": 653.4159167158004,
        "timestamp": "2025-12-13T22:39:30.105092+00:00",
        "meta_object_name": "COSMOS 2251 DEB",
        "meta_object_id": "1993-036LQ",
        "meta_epoch": "2025-12-13T07:14:25.569312",
        "meta_mean_motion": 14.65179384,
        "meta_eccentricity": 0.00477811,
        "meta_inclination": 74.0115,
        "meta_ra_of_asc_node": 305.5441,
        "meta_arg_of_pericenter": 98.1901,
        "meta_mean_anomaly": 262.4691,
        "meta_ephemeris_type": 0,
        "meta_classification_type": "U",
        "meta_norad_cat_id": 34270,
        "meta_element_set_no": 999,
        "meta_rev_at_epoch": 89104,
        "meta_bstar": 0.0013361778,
        "meta_mean_motion_dot": 7.287e-05,
        "meta_mean_motion_ddot": 0,
        "tle_line1": "1 34270U 93036LQ  25347.30168483  .00007287  00000+0  13362-2 0  9991",
        "tle_line2": "2 34270  74.0115 305.5441 0047781  98.1901 262.4691 14.65179384891043"
      },
      "geometry": {
        "type": "Point",
        "coordinates": [
          114.64563655871363,
          30.34096782420384
        ]
      }
    },
    {
      "type": "Feature",
      "properties": {
        "norad_id": 34271,
        "name": "COSMOS 2251 DEB",
        "group": "cosmos-2251-debris",
        "lat": 58.17869625234973,
        "lon": -10.513354598253583,
        "alt_km": 661.5686858960562,
        "timestamp": "2025-12-13T22:39:30.105102+00:00",
        "meta_object_name": "COSMOS 2251 DEB",
        "meta_object_id": "1993-036LR",
        "meta_epoch": "2025-12-13T01:38:00.483360",
        "meta_mean_motion": 14.70773987,
        "meta_eccentricity": 0.00188305,
        "meta_inclination": 74.0205,
        "meta_ra_of_asc_node": 198.6897,
        "meta_arg_of_pericenter": 252.7502,
        "meta_mean_anomaly": 268.6905,
        "meta_ephemeris_type": 0,
        "meta_classification_type": "U",
        "meta_norad_cat_id": 34271,
        "meta_element_set_no": 999,
        "meta_rev_at_epoch": 88239,
        "meta_bstar": 0.0026711493,
        "meta_mean_motion_dot": 0.00016358,
        "meta_mean_motion_ddot": 0,
        "tle_line1": "1 34271U 93036LR  25347.06806115  .00016358  00000+0  26711-2 0  9997",
        "tle_line2": "2 34271  74.0205 198.6897 0018830 252.7502 268.6905 14.70773987882397"
      },
      "geometry": {
        "type": "Point",
        "coordinates": [
          -10.513354598253583,
          58.17869625234973
        ]
      }
    },
    {
      "type": "Feature",
      "properties": {
        "norad_id": 34273,
        "name": "COSMOS 2251 DEB",
        "group": "cosmos-2251-debris",
        "lat": 72.94100402676146,
        "lon": -163.76426585284267,
        "alt_km": 685.9740143832641,
        "timestamp": "2025-12-13T22:39:30.105112+00:00",
        "meta_object_name": "COSMOS 2251 DEB",
        "meta_object_id": "1993-036LT",
        "meta_epoch": "2025-12-13T05:53:16.124064",
        "meta_mean_motion": 14.6123864,
        "meta_eccentricity": 0.00140592,
        "meta_inclination": 74.0356,
        "meta_ra_of_asc_node": 86.4604,
        "meta_arg_of_pericenter": 212.5551,
        "meta_mean_anomaly": 169.2771,
        "meta_ephemeris_type": 0,
        "meta_classification_type": "U",
        "meta_norad_cat_id": 34273,
        "meta_element_set_no": 999,
        "meta_rev_at_epoch": 88629,
        "meta_bstar": 0.0016737385,
        "meta_mean_motion_dot": 8.245e-05,
        "meta_mean_motion_ddot": 0,
        "tle_line1": "1 34273U 93036LT  25347.24532551  .00008245  00000+0  16737-2 0  9992",
        "tle_line2": "2 34273  74.0356  86.4604 0014059 212.5551 169.2771 14.61238640886295"
      },
      "geometry": {
        "type": "Point",
        "coordinates": [
          -163.76426585284267,
          72.94100402676146
        ]
      }
    },
    {
      "type": "Feature",
      "properties": {
        "norad_id": 34274,
        "name": "COSMOS 2251 DEB",
        "group": "cosmos-2251-debris",
        "lat": -13.279885598225198,
        "lon": -109.86997917639995,
        "alt_km": 667.5015432276632,
        "timestamp": "2025-12-13T22:39:30.105123+00:00",
        "meta_object_name": "COSMOS 2251 DEB",
        "meta_object_id": "1993-036LU",
        "meta_epoch": "2025-12-12T16:51:18.764064",
        "meta_mean_motion": 14.64786524,
        "meta_eccentricity": 0.00220301,
        "meta_inclination": 74.0042,
        "meta_ra_of_asc_node": 68.6393,
        "meta_arg_of_pericenter": 218.6944,
        "meta_mean_anomaly": 269.4715,
        "meta_ephemeris_type": 0,
        "meta_classification_type": "U",
        "meta_norad_cat_id": 34274,
        "meta_element_set_no": 999,
        "meta_rev_at_epoch": 88675,
        "meta_bstar": 0.0016535794,
        "meta_mean_motion_dot": 8.831e-05,
        "meta_mean_motion_ddot": 0,
        "tle_line1": "1 34274U 93036LU  25346.70230051  .00008831  00000+0  16536-2 0  9991",
        "tle_line2": "2 34274  74.0042  68.6393 0022030 218.6944 269.4715 14.64786524886750"
      },
      "geometry": {
        "type": "Point",
        "coordinates": [
          -109.86997917639995,
          -13.279885598225198
        ]
      }
    },
    {
      "type": "Feature",
      "properties": {
        "norad_id": 34276,
        "name": "COSMOS 2251 DEB",
        "group": "cosmos-2251-debris",
        "lat": 71.95522133391508,
        "lon": -158.5380643750228,
        "alt_km": 705.2779314664149,
        "timestamp": "2025-12-13T22:39:30.105133+00:00",
        "meta_object_name": "COSMOS 2251 DEB",
        "meta_object_id": "1993-036LW",
        "meta_epoch": "2025-12-13T07:38:48.009408",
        "meta_mean_motion": 14.57238396,
        "meta_eccentricity": 0.00225552,
        "meta_inclination": 74.0234,
        "meta_ra_of_asc_node": 84.2199,
        "meta_arg_of_pericenter": 230.9194,
        "meta_mean_anomaly": 187.7345,
        "meta_ephemeris_type": 0,
        "meta_classification_type": "U",
        "meta_norad_cat_id": 34276,
        "meta_element_set_no": 999,
        "meta_rev_at_epoch": 88601,
        "meta_bstar": 0.0013110127,
        "meta_mean_motion_dot": 5.921e-05,
        "meta_mean_motion_ddot": 0,
        "tle_line1": "1 34276U 93036LW  25347.31861122  .00005921  00000+0  13110-2 0  9992",
        "tle_line2": "2 34276  74.0234  84.2199 0022555 230.9194 187.7345 14.57238396886010"
      },
      "geometry": {
        "type": "Point",
        "coordinates": [
          -158.5380643750228,
          71.95522133391508
        ]
      }
    },
    {
      "type": "Feature",
      "properties": {
        "norad_id": 34297,
        "name": "COSMOS 2251 DEB",
        "group": "cosmos-2251-debris",
        "lat": 20.70904335197637,
        "lon": -71.77158990284977,
        "alt_km": 758.6613831787654,
        "timestamp": "2025-12-13T22:39:30.105143+00:00",
        "meta_object_name": "COSMOS 2251 DEB",
        "meta_object_id": "1993-036MT",
        "meta_epoch": "2025-12-13T06:35:52.744128",
        "meta_mean_motion": 14.36630342,
        "meta_eccentricity": 0.00173099,
        "meta_inclination": 74.0487,
        "meta_ra_of_asc_node": 283.2494,
        "meta_arg_of_pericenter": 351.7122,
        "meta_mean_anomaly": 170.337,
        "meta_ephemeris_type": 0,
        "meta_classification_type": "U",
        "meta_norad_cat_id": 34297,
        "meta_element_set_no": 999,
        "meta_rev_at_epoch": 88072,
        "meta_bstar": 0.00023942854,
        "meta_mean_motion_dot": 6.79e-06,
        "meta_mean_motion_ddot": 0,
        "tle_line1": "1 34297U 93036MT  25347.27491602  .00000679  00000+0  23943-3 0  9993",
        "tle_line2": "2 34297  74.0487 283.2494 0017309 351.7122 170.3370 14.36630342880728"
      },
      "geometry": {
        "type": "Point",
        "coordinates": [
          -71.77158990284977,
          20.70904335197637
        ]
      }
    }
  ]
}